ORBCOMM-X               
1 21576U 91050C   25265.78069467  .00000486  00000+0  15687-3 0  9990
2 21576  98.3341 330.3504 0002543 241.1379 118.9557 14.43331314796195
ORBCOMM FM01            
1 23545U 95017A   25265.50670273  .00013284  00000+0  13414-2 0  9993
2 23545  69.9640 191.2748 0004089 214.4525 145.6366 14.91179196627016
ORBCOMM FM02            
1 23546U 95017B   25265.85504186  .00019741  00000+0  19303-2 0  9998
2 23546  69.9648 209.4391 0005130 204.5627 155.5285 14.92339961626728
ORBCOMM FM08            
1 25112U 97084A   25265.66884642  .00002576  00000+0  75433-3 0  9997
2 25112  45.0135 259.8113 0006632   0.1740 359.9113 14.46113662455480
ORBCOMM FM10            
1 25113U 97084B   25265.04281953  .00002373  00000+0  70131-3 0  9991
2 25113  45.0146 265.3718 0006368 324.4315  35.6112 14.45884340630537
ORBCOMM FM11            
1 25114U 97084C   25265.68615805  .00002268  00000+0  67556-3 0  9999
2 25114  45.0132 263.0939 0007052 330.7689  29.2767 14.45633670455581
ORBCOMM FM12            
1 25115U 97084D   25265.71638615  .00002241  00000+0  66784-3 0  9991
2 25115  45.0138 262.6892 0006248 325.8244  34.2205 14.45651498455388
ORBCOMM FM09            
1 25116U 97084E   25265.68825869  .00002304  00000+0  68725-3 0  9994
2 25116  45.0143 263.8571 0007678 321.0174  39.0123 14.45514465455586
